[{"OBJECT_NAME":"STARLINK-31589","OBJECT_ID":"2024-084A","EPOCH":"2026-03-09T22:35:54.031776","MEAN_MOTION":15.27575395,"ECCENTRICITY":5.285e-5,"INCLINATION":42.9979,"RA_OF_ASC_NODE":40.2098,"ARG_OF_PERICENTER":106.1445,"MEAN_ANOMALY":253.9465,"EPHEMERIS_TYPE":0,"CLASSIFICATION_TYPE":"U","NORAD_CAT_ID":59654,"ELEMENT_SET_NO":999,"REV_AT_EPOCH":10443,"BSTAR":4.8923224e-5,"MEAN_MOTION_DOT":1.085e-5,"MEAN_MOTION_DDOT":0},{"OBJECT_NAME":"ELECTRON KICK STAGE R\/B","OBJECT_ID":"2024-248B","EPOCH":"2026-03-09T20:49:52.700448","MEAN_MOTION":15.26602112,"ECCENTRICITY":0.00382118,"INCLINATION":97.6105,"RA_OF_ASC_NODE":34.9036,"ARG_OF_PERICENTER":284.4829,"MEAN_ANOMALY":75.2171,"EPHEMERIS_TYPE":0,"CLASSIFICATION_TYPE":"U","NORAD_CAT_ID":62407,"ELEMENT_SET_NO":999,"REV_AT_EPOCH":6727,"BSTAR":0.0006831254,"MEAN_MOTION_DOT":0.00018217,"MEAN_MOTION_DDOT":0}]
